CCSDS_OMM_VERS = 2.0
CREATION_DATE  = 
ORIGINATOR     = 

OBJECT_NAME    = KUIPER-00159
OBJECT_ID      = 2026-030A
CENTER_NAME    = EARTH
REF_FRAME      = TEME
TIME_SYSTEM    = UTC
MEAN_ELEMENT_THEORY = SGP/SGP4

EPOCH          = 2026-03-01T21:18:07.957440
MEAN_MOTION    = 15.35348464
ECCENTRICITY   = .00041561
INCLINATION    = 51.8834
RA_OF_ASC_NODE = 256.7825
ARG_OF_PERICENTER = 26.6946
MEAN_ANOMALY   = 333.4253

EPHEMERIS_TYPE = 0
CLASSIFICATION_TYPE = U
NORAD_CAT_ID   = 67764
ELEMENT_SET_NO = 999
REV_AT_EPOCH   = 389
BSTAR          = .91380232E-3
MEAN_MOTION_DOT = .3161E-3
MEAN_MOTION_DDOT = 0

CCSDS_OMM_VERS = 2.0
CREATION_DATE  = 
ORIGINATOR     = 

OBJECT_NAME    = KUIPER-00160
OBJECT_ID      = 2026-030B
CENTER_NAME    = EARTH
REF_FRAME      = TEME
TIME_SYSTEM    = UTC
MEAN_ELEMENT_THEORY = SGP/SGP4

EPOCH          = 2026-03-01T22:53:09.522816
MEAN_MOTION    = 15.35270207
ECCENTRICITY   = .00043291
INCLINATION    = 51.8799
RA_OF_ASC_NODE = 256.4679
ARG_OF_PERICENTER = 36.6979
MEAN_ANOMALY   = 323.4302

EPHEMERIS_TYPE = 0
CLASSIFICATION_TYPE = U
NORAD_CAT_ID   = 67765
ELEMENT_SET_NO = 999
REV_AT_EPOCH   = 390
BSTAR          = .93300025E-3
MEAN_MOTION_DOT = .32204E-3
MEAN_MOTION_DDOT = 0

CCSDS_OMM_VERS = 2.0
CREATION_DATE  = 
ORIGINATOR     = 

OBJECT_NAME    = KUIPER-00177
OBJECT_ID      = 2026-030C
CENTER_NAME    = EARTH
REF_FRAME      = TEME
TIME_SYSTEM    = UTC
MEAN_ELEMENT_THEORY = SGP/SGP4

EPOCH          = 2026-03-01T22:38:33.623808
MEAN_MOTION    = 15.36130833
ECCENTRICITY   = .00004957
INCLINATION    = 51.8824
RA_OF_ASC_NODE = 256.4059
ARG_OF_PERICENTER = 16.6920
MEAN_ANOMALY   = 343.4083

EPHEMERIS_TYPE = 0
CLASSIFICATION_TYPE = U
NORAD_CAT_ID   = 67766
ELEMENT_SET_NO = 999
REV_AT_EPOCH   = 390
BSTAR          = .877418E-3
MEAN_MOTION_DOT = .31106E-3
MEAN_MOTION_DDOT = 0

CCSDS_OMM_VERS = 2.0
CREATION_DATE  = 
ORIGINATOR     = 

OBJECT_NAME    = KUIPER-00178
OBJECT_ID      = 2026-030D
CENTER_NAME    = EARTH
REF_FRAME      = TEME
TIME_SYSTEM    = UTC
MEAN_ELEMENT_THEORY = SGP/SGP4

EPOCH          = 2026-03-01T22:55:22.932192
MEAN_MOTION    = 15.35142957
ECCENTRICITY   = .00057143
INCLINATION    = 51.8823
RA_OF_ASC_NODE = 256.4830
ARG_OF_PERICENTER = 25.3634
MEAN_ANOMALY   = 334.7631

EPHEMERIS_TYPE = 0
CLASSIFICATION_TYPE = U
NORAD_CAT_ID   = 67767
ELEMENT_SET_NO = 999
REV_AT_EPOCH   = 390
BSTAR          = .9909798E-3
MEAN_MOTION_DOT = .34105E-3
MEAN_MOTION_DDOT = 0

CCSDS_OMM_VERS = 2.0
CREATION_DATE  = 
ORIGINATOR     = 

OBJECT_NAME    = KUIPER-00180
OBJECT_ID      = 2026-030E
CENTER_NAME    = EARTH
REF_FRAME      = TEME
TIME_SYSTEM    = UTC
MEAN_ELEMENT_THEORY = SGP/SGP4

EPOCH          = 2026-03-01T21:55:27.474816
MEAN_MOTION    = 15.32274564
ECCENTRICITY   = .00153062
INCLINATION    = 51.8804
RA_OF_ASC_NODE = 256.9406
ARG_OF_PERICENTER = 46.6736
MEAN_ANOMALY   = 313.5522

EPHEMERIS_TYPE = 0
CLASSIFICATION_TYPE = U
NORAD_CAT_ID   = 67768
ELEMENT_SET_NO = 999
REV_AT_EPOCH   = 389
BSTAR          = .46901587E-3
MEAN_MOTION_DOT = .14536E-3
MEAN_MOTION_DDOT = 0

CCSDS_OMM_VERS = 2.0
CREATION_DATE  = 
ORIGINATOR     = 

OBJECT_NAME    = KUIPER-00197
OBJECT_ID      = 2026-030F
CENTER_NAME    = EARTH
REF_FRAME      = TEME
TIME_SYSTEM    = UTC
MEAN_ELEMENT_THEORY = SGP/SGP4

EPOCH          = 2026-03-01T22:41:14.876448
MEAN_MOTION    = 15.36009925
ECCENTRICITY   = .00011003
INCLINATION    = 51.8828
RA_OF_ASC_NODE = 256.4188
ARG_OF_PERICENTER = 64.2130
MEAN_ANOMALY   = 295.8970

EPHEMERIS_TYPE = 0
CLASSIFICATION_TYPE = U
NORAD_CAT_ID   = 67769
ELEMENT_SET_NO = 999
REV_AT_EPOCH   = 390
BSTAR          = .99708082E-3
MEAN_MOTION_DOT = .35282E-3
MEAN_MOTION_DDOT = 0

CCSDS_OMM_VERS = 2.0
CREATION_DATE  = 
ORIGINATOR     = 

OBJECT_NAME    = KUIPER-00198
OBJECT_ID      = 2026-030G
CENTER_NAME    = EARTH
REF_FRAME      = TEME
TIME_SYSTEM    = UTC
MEAN_ELEMENT_THEORY = SGP/SGP4

EPOCH          = 2026-03-01T22:47:05.457408
MEAN_MOTION    = 15.35652238
ECCENTRICITY   = .00027149
INCLINATION    = 51.8801
RA_OF_ASC_NODE = 256.4411
ARG_OF_PERICENTER = 31.8152
MEAN_ANOMALY   = 328.2998

EPHEMERIS_TYPE = 0
CLASSIFICATION_TYPE = U
NORAD_CAT_ID   = 67770
ELEMENT_SET_NO = 999
REV_AT_EPOCH   = 390
BSTAR          = .92108764E-3
MEAN_MOTION_DOT = .32178E-3
MEAN_MOTION_DDOT = 0

CCSDS_OMM_VERS = 2.0
CREATION_DATE  = 
ORIGINATOR     = 

OBJECT_NAME    = KUIPER-00199
OBJECT_ID      = 2026-030H
CENTER_NAME    = EARTH
REF_FRAME      = TEME
TIME_SYSTEM    = UTC
MEAN_ELEMENT_THEORY = SGP/SGP4

EPOCH          = 2026-03-01T23:13:02.306784
MEAN_MOTION    = 15.34018453
ECCENTRICITY   = .00103195
INCLINATION    = 51.8795
RA_OF_ASC_NODE = 256.5553
ARG_OF_PERICENTER = 39.2094
MEAN_ANOMALY   = 320.9637

EPHEMERIS_TYPE = 0
CLASSIFICATION_TYPE = U
NORAD_CAT_ID   = 67771
ELEMENT_SET_NO = 999
REV_AT_EPOCH   = 390
BSTAR          = .92362187E-3
MEAN_MOTION_DOT = .30654E-3
MEAN_MOTION_DDOT = 0

CCSDS_OMM_VERS = 2.0
CREATION_DATE  = 
ORIGINATOR     = 

OBJECT_NAME    = KUIPER-00200
OBJECT_ID      = 2026-030J
CENTER_NAME    = EARTH
REF_FRAME      = TEME
TIME_SYSTEM    = UTC
MEAN_ELEMENT_THEORY = SGP/SGP4

EPOCH          = 2026-03-01T22:31:21.426816
MEAN_MOTION    = 15.36642048
ECCENTRICITY   = .00017568
INCLINATION    = 51.8806
RA_OF_ASC_NODE = 256.3707
ARG_OF_PERICENTER = 195.7820
MEAN_ANOMALY   = 164.3112

EPHEMERIS_TYPE = 0
CLASSIFICATION_TYPE = U
NORAD_CAT_ID   = 67772
ELEMENT_SET_NO = 999
REV_AT_EPOCH   = 390
BSTAR          = .78816066E-3
MEAN_MOTION_DOT = .28359E-3
MEAN_MOTION_DDOT = 0

CCSDS_OMM_VERS = 2.0
CREATION_DATE  = 
ORIGINATOR     = 

OBJECT_NAME    = KUIPER-00203
OBJECT_ID      = 2026-030K
CENTER_NAME    = EARTH
REF_FRAME      = TEME
TIME_SYSTEM    = UTC
MEAN_ELEMENT_THEORY = SGP/SGP4

EPOCH          = 2026-03-01T22:00:01.999584
MEAN_MOTION    = 15.29313451
ECCENTRICITY   = .00122646
INCLINATION    = 51.8803
RA_OF_ASC_NODE = 256.8633
ARG_OF_PERICENTER = 41.5452
MEAN_ANOMALY   = 358.0919

EPHEMERIS_TYPE = 0
CLASSIFICATION_TYPE = U
NORAD_CAT_ID   = 67773
ELEMENT_SET_NO = 999
REV_AT_EPOCH   = 246
BSTAR          = -.48109033E-1
MEAN_MOTION_DOT = -.1275654E-1
MEAN_MOTION_DDOT = 0

CCSDS_OMM_VERS = 2.0
CREATION_DATE  = 
ORIGINATOR     = 

OBJECT_NAME    = KUIPER-00205
OBJECT_ID      = 2026-030L
CENTER_NAME    = EARTH
REF_FRAME      = TEME
TIME_SYSTEM    = UTC
MEAN_ELEMENT_THEORY = SGP/SGP4

EPOCH          = 2026-03-01T22:42:16.337952
MEAN_MOTION    = 15.35993835
ECCENTRICITY   = .00022666
INCLINATION    = 51.8803
RA_OF_ASC_NODE = 256.4192
ARG_OF_PERICENTER = 359.6330
MEAN_ANOMALY   = 0.4654

EPHEMERIS_TYPE = 0
CLASSIFICATION_TYPE = U
NORAD_CAT_ID   = 67774
ELEMENT_SET_NO = 999
REV_AT_EPOCH   = 390
BSTAR          = .98327534E-3
MEAN_MOTION_DOT = .34769E-3
MEAN_MOTION_DDOT = 0

CCSDS_OMM_VERS = 2.0
CREATION_DATE  = 
ORIGINATOR     = 

OBJECT_NAME    = KUIPER-00208
OBJECT_ID      = 2026-030M
CENTER_NAME    = EARTH
REF_FRAME      = TEME
TIME_SYSTEM    = UTC
MEAN_ELEMENT_THEORY = SGP/SGP4

EPOCH          = 2026-03-01T21:53:14.999424
MEAN_MOTION    = 15.32857715
ECCENTRICITY   = .00144201
INCLINATION    = 51.8827
RA_OF_ASC_NODE = 256.9390
ARG_OF_PERICENTER = 40.6602
MEAN_ANOMALY   = 319.5457

EPHEMERIS_TYPE = 0
CLASSIFICATION_TYPE = U
NORAD_CAT_ID   = 67775
ELEMENT_SET_NO = 999
REV_AT_EPOCH   = 389
BSTAR          = .86767451E-3
MEAN_MOTION_DOT = .2776E-3
MEAN_MOTION_DDOT = 0

