KUIPER-00159            
1 67764U 26030A   26060.88759210  .00031610  00000+0  91380-3 0  9999
2 67764  51.8834 256.7825 0004156  26.6946 333.4253 15.35348464  3891
KUIPER-00160            
1 67765U 26030B   26060.95358244  .00032204  00000+0  93300-3 0  9994
2 67765  51.8799 256.4679 0004329  36.6979 323.4302 15.35270207  3900
KUIPER-00177            
1 67766U 26030C   26060.94344472  .00031106  00000+0  87742-3 0  9995
2 67766  51.8824 256.4059 0000495  16.6920 343.4083 15.36130833  3905
KUIPER-00178            
1 67767U 26030D   26060.95512653  .00034105  00000+0  99098-3 0  9994
2 67767  51.8823 256.4830 0005714  25.3634 334.7631 15.35142957  3901
KUIPER-00180            
1 67768U 26030E   26060.91351244  .00014536  00000+0  46902-3 0  9990
2 67768  51.8804 256.9406 0015306  46.6736 313.5522 15.32274564  3891
KUIPER-00197            
1 67769U 26030F   26060.94531107  .00035282  00000+0  99708-3 0  9995
2 67769  51.8828 256.4188 0001100  64.2130 295.8970 15.36009925  3903
KUIPER-00198            
1 67770U 26030G   26060.94936872  .00032178  00000+0  92109-3 0  9994
2 67770  51.8801 256.4411 0002714  31.8152 328.2998 15.35652238  3902
KUIPER-00199            
1 67771U 26030H   26060.96738781  .00030654  00000+0  92362-3 0  9994
2 67771  51.8795 256.5553 0010319  39.2094 320.9637 15.34018453  3903
KUIPER-00200            
1 67772U 26030J   26060.93844244  .00028359  00000+0  78816-3 0  9991
2 67772  51.8806 256.3707 0001756 195.7820 164.3112 15.36642048  3909
KUIPER-00203            
1 67773U 26030K   26060.91668981 -.01275654  00000+0 -48109-1 0  9997
2 67773  51.8803 256.8633 0012264  41.5452 358.0919 15.29313451  2467
KUIPER-00205            
1 67774U 26030L   26060.94602243  .00034769  00000+0  98328-3 0  9997
2 67774  51.8803 256.4192 0002266 359.6330   0.4654 15.35993835  3904
KUIPER-00208            
1 67775U 26030M   26060.91197916  .00027760  00000+0  86767-3 0  9998
2 67775  51.8827 256.9390 0014420  40.6602 319.5457 15.32857715  3896
